GLOBALSTAR M057         
1 25943U 99058A   25355.48155744 -.00000086  00000+0  58711-4 0  9992
2 25943  51.9950 176.6593 0003324  54.5362 305.5797 12.24832266189884
GLOBALSTAR M059         
1 25944U 99058B   25355.49727751 -.00000075  00000+0  13865-3 0  9995
2 25944  52.0035  60.4333 0000343 119.4866 253.8941 11.99988116596538
GLOBALSTAR M056         
1 25945U 99058C   25355.49737777 -.00000093  00000+0 -68047-4 0  9999
2 25945  51.9981  57.5914 0001260 176.8697 196.1921 12.04780978185205
GLOBALSTAR M031         
1 25946U 99058D   25351.65166691 -.00000043  00000+0  48267-3 0  9990
2 25946  51.9983 309.4344 0000939 181.2254 351.7896 12.16044933186865
GLOBALSTAR M039         
1 25961U 99062A   25355.58363066 -.00000087  00000+0  91635-4 0  9999
2 25961  51.9860  57.9359 0002701  55.0683 305.0437 12.62339652203881
GLOBALSTAR M034         
1 25962U 99062B   25355.43645068 -.00000049  00000+0  50959-3 0  9990
2 25962  51.9862 244.6466 0015163  37.1314 133.8064 11.79454156160481
GLOBALSTAR M029         
1 25963U 99062C   25355.63955208 -.00000033  00000+0  65332-3 0  9997
2 25963  51.9825 307.9247 0002553 113.0986  59.7053 11.99904730191623
GLOBALSTAR M061         
1 25964U 99062D   25355.60631041 -.00000091  00000+0 -18330-3 0  9992
2 25964  51.9807  70.7252 0005237 317.6213 191.0792 11.76777814143243
